start=new Date('2023-06-07T00:00:00.000Z').valueOf();
sats=[{"APOAPSIS":"540.493","ARG_OF_PERICENTER":"100.4369","OBJECT_ID":"2022-076B","TLE_LINE2":"2 52987  53.2193 304.6606 0001020 100.4369 259.6739 15.08826392 50681","NORAD_CAT_ID":"52987","RCS_SIZE":"LARGE","MEAN_ANOMALY":"259.6739","RA_OF_ASC_NODE":"304.6606","LAUNCH_DATE":"2022-07-07","CLASSIFICATION_TYPE":"U","PERIOD":"95.438","TIME_SYSTEM":"UTC","MEAN_MOTION_DDOT":"0.0000000000000","TLE_LINE1":"1 52987U 22076B   23157.70322188  .00002914  00000-0  20119-3 0  9999","SITE":"AFETR","ECCENTRICITY":"0.00010200","BSTAR":"0.00020119000000","DECAY_DATE":null,"EPOCH":"2023-06-06T16:52:38.370432","CENTER_NAME":"EARTH","INCLINATION":"53.2193","EPHEMERIS_TYPE":"0","REV_AT_EPOCH":"5068","REF_FRAME":"TEME","MEAN_ELEMENT_THEORY":"SGP4","PERIAPSIS":"539.081","FILE":"3926571","ELEMENT_SET_NO":"999","SEMIMAJOR_AXIS":"6917.922","OBJECT_NAME":"STARLINK-4259","GP_ID":"233358311","MEAN_MOTION_DOT":"0.00002914","COUNTRY_CODE":"US","OBJECT_TYPE":"PAYLOAD","MEAN_MOTION":"15.08826392"},{"EPOCH":"2023-06-06T15:50:21.867648","DECAY_DATE":null,"CENTER_NAME":"EARTH","SITE":"AFETR","ECCENTRICITY":"0.00011790","BSTAR":"0.00002656200000","PERIOD":"95.437","TIME_SYSTEM":"UTC","TLE_LINE1":"1 52988U 22076C   23157.65997532  .00000135  00000-0  26562-4 0  9997","MEAN_MOTION_DDOT":"0.0000000000000","LAUNCH_DATE":"2022-07-07","CLASSIFICATION_TYPE":"U","RA_OF_ASC_NODE":"294.8506","RCS_SIZE":"LARGE","MEAN_ANOMALY":"265.0833","TLE_LINE2":"2 52988  53.2172 294.8506 0001179  95.0294 265.0833 15.08842850 50817","NORAD_CAT_ID":"52988","APOAPSIS":"540.552","ARG_OF_PERICENTER":"95.0294","OBJECT_ID":"2022-076C","OBJECT_TYPE":"PAYLOAD","MEAN_MOTION":"15.08842850","MEAN_MOTION_DOT":"0.00000135","COUNTRY_CODE":"US","GP_ID":"233359562","PERIAPSIS":"538.921","FILE":"3926571","ELEMENT_SET_NO":"999","OBJECT_NAME":"STARLINK-4291","SEMIMAJOR_AXIS":"6917.872","MEAN_ELEMENT_THEORY":"SGP4","REF_FRAME":"TEME","INCLINATION":"53.2172","EPHEMERIS_TYPE":"0","REV_AT_EPOCH":"5081"},{"EPOCH":"2023-06-06T15:11:57.081984","DECAY_DATE":null,"CENTER_NAME":"EARTH","ECCENTRICITY":"0.00009950","SITE":"AFETR","BSTAR":"0.00002467600000","PERIOD":"95.438","TIME_SYSTEM":"UTC","TLE_LINE1":"1 52989U 22076D   23157.63329956  .00000105  00000-0  24676-4 0  9996","MEAN_MOTION_DDOT":"0.0000000000000","LAUNCH_DATE":"2022-07-07","CLASSIFICATION_TYPE":"U","RA_OF_ASC_NODE":"304.9699","RCS_SIZE":"LARGE","MEAN_ANOMALY":"271.5799","NORAD_CAT_ID":"52989","TLE_LINE2":"2 52989  53.2170 304.9699 0000995  88.5307 271.5799 15.08837053 50675","APOAPSIS":"540.443","ARG_OF_PERICENTER":"88.5307","OBJECT_ID":"2022-076D","OBJECT_TYPE":"PAYLOAD","MEAN_MOTION":"15.08837053","MEAN_MOTION_DOT":"0.00000105","COUNTRY_CODE":"US","GP_ID":"233359813","PERIAPSIS":"539.066","FILE":"3926571","ELEMENT_SET_NO":"999","OBJECT_NAME":"STARLINK-4293","SEMIMAJOR_AXIS":"6917.889","MEAN_ELEMENT_THEORY":"SGP4","REF_FRAME":"TEME","INCLINATION":"53.2170","EPHEMERIS_TYPE":"0","REV_AT_EPOCH":"5067"},{"EPHEMERIS_TYPE":"0","REV_AT_EPOCH":"5067","INCLINATION":"53.2169","REF_FRAME":"TEME","MEAN_ELEMENT_THEORY":"SGP4","SEMIMAJOR_AXIS":"6917.894","OBJECT_NAME":"STARLINK-4286","PERIAPSIS":"539.050","FILE":"3926571","ELEMENT_SET_NO":"999","GP_ID":"233358561","MEAN_MOTION_DOT":"0.00000230","COUNTRY_CODE":"US","MEAN_MOTION":"15.08835613","OBJECT_TYPE":"PAYLOAD","OBJECT_ID":"2022-076E","APOAPSIS":"540.468","ARG_OF_PERICENTER":"94.2188","NORAD_CAT_ID":"52990","TLE_LINE2":"2 52990  53.2169 304.9868 0001025  94.2188 265.8921 15.08835613 50672","MEAN_ANOMALY":"265.8921","RCS_SIZE":"LARGE","RA_OF_ASC_NODE":"304.9868","CLASSIFICATION_TYPE":"U","LAUNCH_DATE":"2022-07-07","TIME_SYSTEM":"UTC","MEAN_MOTION_DDOT":"0.0000000000000","TLE_LINE1":"1 52990U 22076E   23157.62961784  .00000230  00000-0  32535-4 0  9990","PERIOD":"95.438","SITE":"AFETR","BSTAR":"0.00003253500000","ECCENTRICITY":"0.00010250","CENTER_NAME":"EARTH","EPOCH":"2023-06-06T15:06:38.981376","DECAY_DATE":null},{"LAUNCH_DATE":"2022-07-07","CLASSIFICATION_TYPE":"U","PERIOD":"95.438","TIME_SYSTEM":"UTC","MEAN_MOTION_DDOT":"0.0000000000000","TLE_LINE1":"1 52991U 22076F   23157.62593739  .00000885  00000-0  73651-4 0  9992","ECCENTRICITY":"0.00011050","SITE":"AFETR","BSTAR":"0.00007365100000","EPOCH":"2023-06-06T15:01:20.990496","DECAY_DATE":null,"CENTER_NAME":"EARTH","APOAPSIS":"540.509","ARG_OF_PERICENTER":"74.5367","OBJECT_ID":"2022-076F","TLE_LINE2":"2 52991  53.2169 305.0043 0001105  74.5367 285.5747 15.08840117 50679","NORAD_CAT_ID":"52991","RCS_SIZE":"LARGE","MEAN_ANOMALY":"285.5747","RA_OF_ASC_NODE":"305.0043","PERIAPSIS":"538.981","FILE":"3926571","ELEMENT_SET_NO":"999","SEMIMAJOR_AXIS":"6917.880","OBJECT_NAME":"STARLINK-4285","GP_ID":"233358811","MEAN_MOTION_DOT":"0.00000885","COUNTRY_CODE":"US","OBJECT_TYPE":"PAYLOAD","MEAN_MOTION":"15.08840117","INCLINATION":"53.2169","EPHEMERIS_TYPE":"0","REV_AT_EPOCH":"5067","REF_FRAME":"TEME","MEAN_ELEMENT_THEORY":"SGP4"},{"PERIOD":"95.438","TLE_LINE1":"1 52992U 22076G   23157.62321638 -.00000025  00000-0  16497-4 0  9992","MEAN_MOTION_DDOT":"0.0000000000000","TIME_SYSTEM":"UTC","LAUNCH_DATE":"2022-07-07","CLASSIFICATION_TYPE":"U","EPOCH":"2023-06-06T14:57:25.895232","DECAY_DATE":null,"CENTER_NAME":"EARTH","BSTAR":"0.00001649700000","SITE":"AFETR","ECCENTRICITY":"0.00008650","TLE_LINE2":"2 52992  53.2171 305.0260 0000865  81.9675 278.1415 15.08838630 50677","NORAD_CAT_ID":"52992","ARG_OF_PERICENTER":"81.9675","APOAPSIS":"540.348","OBJECT_ID":"2022-076G","RA_OF_ASC_NODE":"305.0260","RCS_SIZE":"LARGE","MEAN_ANOMALY":"278.1415","GP_ID":"233359063","FILE":"3926571","ELEMENT_SET_NO":"999","PERIAPSIS":"539.151","OBJECT_NAME":"STARLINK-4269","SEMIMAJOR_AXIS":"6917.885","OBJECT_TYPE":"PAYLOAD","MEAN_MOTION":"15.08838630","MEAN_MOTION_DOT":"-0.00000025","COUNTRY_CODE":"US","INCLINATION":"53.2171","REV_AT_EPOCH":"5067","EPHEMERIS_TYPE":"0","MEAN_ELEMENT_THEORY":"SGP4","REF_FRAME":"TEME"},{"COUNTRY_CODE":"US","MEAN_MOTION_DOT":"0.00000667","MEAN_MOTION":"15.08839454","OBJECT_TYPE":"PAYLOAD","OBJECT_NAME":"STARLINK-4264","SEMIMAJOR_AXIS":"6917.882","PERIAPSIS":"539.048","ELEMENT_SET_NO":"999","FILE":"3926571","GP_ID":"233359314","REF_FRAME":"TEME","MEAN_ELEMENT_THEORY":"SGP4","EPHEMERIS_TYPE":"0","REV_AT_EPOCH":"5081","INCLINATION":"53.2174","SITE":"AFETR","ECCENTRICITY":"0.00010100","BSTAR":"0.00005996000000","CENTER_NAME":"EARTH","EPOCH":"2023-06-06T15:45:03.970080","DECAY_DATE":null,"CLASSIFICATION_TYPE":"U","LAUNCH_DATE":"2022-07-07","TIME_SYSTEM":"UTC","TLE_LINE1":"1 52993U 22076H   23157.65629595  .00000667  00000-0  59960-4 0  9992","MEAN_MOTION_DDOT":"0.0000000000000","PERIOD":"95.438","MEAN_ANOMALY":"265.6700","RCS_SIZE":"LARGE","RA_OF_ASC_NODE":"294.8678","OBJECT_ID":"2022-076H","APOAPSIS":"540.446","ARG_OF_PERICENTER":"94.4408","NORAD_CAT_ID":"52993","TLE_LINE2":"2 52993  53.2174 294.8678 0001010  94.4408 265.6700 15.08839454 50814"},{"OBJECT_ID":"2022-076J","APOAPSIS":"540.314","ARG_OF_PERICENTER":"95.1590","NORAD_CAT_ID":"52994","TLE_LINE2":"2 52994  53.2166 295.1816 0000843  95.1590 264.9498 15.08844868 50807","MEAN_ANOMALY":"264.9498","RCS_SIZE":"LARGE","RA_OF_ASC_NODE":"295.1816","CLASSIFICATION_TYPE":"U","LAUNCH_DATE":"2022-07-07","TIME_SYSTEM":"UTC","MEAN_MOTION_DDOT":"0.0000000000000","TLE_LINE1":"1 52994U 22076J   23157.58637517  .00000826  00000-0  69968-4 0  9994","PERIOD":"95.437","SITE":"AFETR","ECCENTRICITY":"0.00008430","BSTAR":"0.00006996800000","CENTER_NAME":"EARTH","DECAY_DATE":null,"EPOCH":"2023-06-06T14:04:22.814688","EPHEMERIS_TYPE":"0","REV_AT_EPOCH":"5080","INCLINATION":"53.2166","REF_FRAME":"TEME","MEAN_ELEMENT_THEORY":"SGP4","OBJECT_NAME":"STARLINK-4256","SEMIMAJOR_AXIS":"6917.866","PERIAPSIS":"539.147","FILE":"3926571","ELEMENT_SET_NO":"999","GP_ID":"233358062","MEAN_MOTION_DOT":"0.00000826","COUNTRY_CODE":"US","MEAN_MOTION":"15.08844868","OBJECT_TYPE":"PAYLOAD"},{"COUNTRY_CODE":"US","MEAN_MOTION_DOT":"0.00000080","MEAN_MOTION":"15.08848078","OBJECT_TYPE":"PAYLOAD","OBJECT_NAME":"STARLINK-4296","SEMIMAJOR_AXIS":"6917.856","PERIAPSIS":"539.031","FILE":"3926571","ELEMENT_SET_NO":"999","GP_ID":"233358312","REF_FRAME":"TEME","MEAN_ELEMENT_THEORY":"SGP4","EPHEMERIS_TYPE":"0","REV_AT_EPOCH":"5081","INCLINATION":"53.2155","BSTAR":"0.00002309900000","SITE":"AFETR","ECCENTRICITY":"0.00009970","CENTER_NAME":"EARTH","EPOCH":"2023-06-06T15:29:10.082112","DECAY_DATE":null,"CLASSIFICATION_TYPE":"U","LAUNCH_DATE":"2022-07-07","TIME_SYSTEM":"UTC","MEAN_MOTION_DDOT":"0.0000000000000","TLE_LINE1":"1 52995U 22076K   23157.64525558  .00000080  00000-0  23099-4 0  9990","PERIOD":"95.437","MEAN_ANOMALY":"271.0937","RCS_SIZE":"LARGE","RA_OF_ASC_NODE":"294.9203","OBJECT_ID":"2022-076K","APOAPSIS":"540.410","ARG_OF_PERICENTER":"89.0169","NORAD_CAT_ID":"52995","TLE_LINE2":"2 52995  53.2155 294.9203 0000997  89.0169 271.0937 15.08848078 50812"},{"MEAN_ANOMALY":"280.0943","RCS_SIZE":"LARGE","RA_OF_ASC_NODE":"294.9030","OBJECT_ID":"2022-076L","ARG_OF_PERICENTER":"80.0183","APOAPSIS":"540.561","TLE_LINE2":"2 52996  53.2176 294.9030 0001185  80.0183 280.0943 15.08841451 50816","NORAD_CAT_ID":"52996","SITE":"AFETR","ECCENTRICITY":"0.00011850","BSTAR":"0.00001089900000","CENTER_NAME":"EARTH","DECAY_DATE":null,"EPOCH":"2023-06-06T15:34:28.284672","CLASSIFICATION_TYPE":"U","LAUNCH_DATE":"2022-07-07","MEAN_MOTION_DDOT":"0.0000000000000","TLE_LINE1":"1 52996U 22076L   23157.64893848 -.00000114  00000-0  10899-4 0  9994","TIME_SYSTEM":"UTC","PERIOD":"95.437","REF_FRAME":"TEME","MEAN_ELEMENT_THEORY":"SGP4","REV_AT_EPOCH":"5081","EPHEMERIS_TYPE":"0","INCLINATION":"53.2176","MEAN_MOTION_DOT":"-0.00000114","COUNTRY_CODE":"US","MEAN_MOTION":"15.08841451","OBJECT_TYPE":"PAYLOAD","OBJECT_NAME":"STARLINK-4295","SEMIMAJOR_AXIS":"6917.876","FILE":"3926571","ELEMENT_SET_NO":"999","PERIAPSIS":"538.921","GP_ID":"233359563"}];
